{
  "norad_id": 67033,
  "name": "STARLINK-36137",
  "history": [
    {
      "epoch": "2026-03-28T22:00:18.997920",
      "apogee_km": 484.36393519532794,
      "perigee_km": 481.6208556630363,
      "latitude_deg": 27.875738338414113,
      "longitude_deg": -108.67889119987376,
      "semi_major_axis_km": 6861.129395429182,
      "eccentricity": 0.0001999,
      "inclination_deg": 43.0022,
      "raan_deg": 289.1582,
      "arg_perigee_deg": 264.7687,
      "mean_anomaly_deg": 95.2936,
      "mean_motion_rev_day": 15.27598936
    }
  ]
}